[{"OBJECT_NAME":"OBJECT B","OBJECT_ID":"2023-189B","EPOCH":"2026-03-09T23:19:13.152000","MEAN_MOTION":15.72871024,"ECCENTRICITY":0.00049112,"INCLINATION":97.414,"RA_OF_ASC_NODE":101.6861,"ARG_OF_PERICENTER":172.6117,"MEAN_ANOMALY":187.522,"EPHEMERIS_TYPE":0,"CLASSIFICATION_TYPE":"U","NORAD_CAT_ID":58503,"ELEMENT_SET_NO":999,"REV_AT_EPOCH":12706,"BSTAR":0.00074828171,"MEAN_MOTION_DOT":0.00102221,"MEAN_MOTION_DDOT":0},{"OBJECT_NAME":"STARLINK-11662 [DTC]","OBJECT_ID":"2025-089D","EPOCH":"2026-03-09T02:41:34.309824","MEAN_MOTION":15.70838196,"ECCENTRICITY":8.524e-5,"INCLINATION":42.9977,"RA_OF_ASC_NODE":295.8198,"ARG_OF_PERICENTER":349.0948,"MEAN_ANOMALY":10.9901,"EPHEMERIS_TYPE":0,"CLASSIFICATION_TYPE":"U","NORAD_CAT_ID":63754,"ELEMENT_SET_NO":999,"REV_AT_EPOCH":5009,"BSTAR":0.0019079346,"MEAN_MOTION_DOT":0.00251915,"MEAN_MOTION_DDOT":0}]
